CZ-6A DEB               
1 54290U 22151AH  22331.75295473  .00000255  00000+0  10834-3 0  9994
2 54290  98.5709 335.6869 0127597 274.8384  83.8239 14.29346009  1694
CZ-6A DEB               
1 54291U 22151AJ  22331.73944596  .00000274  00000+0  19197-3 0  9992
2 54291  98.8047 336.3172 0081667 353.3850   6.6233 14.04771102  1669
CZ-6A DEB               
1 54292U 22151AK  22331.80419975  .00000248  00000+0  17632-3 0  9992
2 54292  98.8255 336.5050 0063175  41.7633 318.8332 14.05351801  1679
CZ-6A DEB               
1 54293U 22151AL  22331.76315267  .00000246  00000+0  13098-3 0  9997
2 54293  98.8160 336.8316 0040125 276.3459  83.3149 14.21954540  1683
CZ-6A DEB               
1 54294U 22151AM  22332.30095492  .00003144  00000+0  71151-3 0  9998
2 54294  98.8527 338.3073 0162578 234.7871 123.8008 14.49135769  1791
CZ-6A DEB               
1 54295U 22151AN  22331.64609975  .00002129  00000+0  10020-2 0  9991
2 54295  98.7426 336.1106 0174524 308.0607  50.4929 14.13321249  1662
CZ-6A DEB               
1 54296U 22151AP  22332.07464443  .00001018  00000+0  44673-3 0  9997
2 54296  98.8685 337.5238 0032647 208.9718 150.9650 14.25584829  1735
CZ-6A DEB               
1 54297U 22151AQ  22331.48416401  .00000693  00000+0  33383-3 0  9997
2 54297  98.7537 336.2115 0027311 153.2650 206.9942 14.21731642  1650
CZ-6A DEB               
1 54298U 22151AR  22331.72943499  .00000354  00000+0  23851-3 0  9990
2 54298  98.7650 336.1155 0063120  47.4379 313.2092 14.05679554  1675
CZ-6A DEB               
1 54299U 22151AS  22331.57434010  .00000079  00000+0  72214-4 0  9990
2 54299  98.8130 336.2508 0055610  38.1077 322.4004 14.06843643  1623
CZ-6A DEB               
1 54300U 22151AT  22331.50155964  .00000711  00000+0  44471-3 0  9990
2 54300  98.9039 336.6698 0061195   4.6024 355.5695 14.07005558  1612
CZ-6A DEB               
1 54301U 22151AU  22332.21015354  .00000376  00000+0  24682-3 0  9997
2 54301  98.9030 337.3678 0056907   9.8688 350.3584 14.07223601  1710
CZ-6A DEB               
1 54302U 22151AV  22331.49135253  .00001565  00000+0  39129-3 0  9991
2 54302  98.9636 338.0137 0141006 191.2443 168.5587 14.47297408  1678
CZ-6A DEB               
1 54303U 22151AW  22332.26363371 -.00000071  00000+0 -16215-4 0  9997
2 54303  98.8342 337.0871 0047814  45.0615 315.4418 14.08763960  1725
CZ-6A DEB               
1 54304U 22151AX  22331.83923358  .00000526  00000+0  32759-3 0  9990
2 54304  98.8355 336.6734 0046992  33.9759 326.4405 14.08617229  1661
CZ-6A DEB               
1 54305U 22151AY  22331.82444829  .00000189  00000+0  10251-3 0  9999
2 54305  98.8201 336.9364 0056132 140.4014 220.1284 14.22777688  1699
CZ-6A DEB               
1 54306U 22151AZ  22331.75432911  .00000159  00000+0  11425-3 0  9992
2 54306  98.8178 336.5247 0041350  37.1987 323.2036 14.09869249  1652
CZ-6A DEB               
1 54307U 22151BA  22331.64340567  .00003319  00000+0  11159-2 0  9990
2 54307  98.6181 335.9229 0131235 267.7038  90.9115 14.33070230  1666
CZ-6A DEB               
1 54308U 22151BB  22332.40429562  .00004012  00000+0  13441-2 0  9996
2 54308  98.6982 337.1372 0122793 261.6298  97.0950 14.33706051  1773
CZ-6A DEB               
1 54309U 22151BC  22331.81915429  .00000273  00000+0  17697-3 0  9996
2 54309  98.8172 336.6010 0038452  35.5917 324.7807 14.10425814  1663
CZ-6A DEB               
1 54310U 22151BD  22331.63090697  .00006036  00000+0  17243-2 0  9998
2 54310  98.6123 336.0735 0127969 244.8824 113.9042 14.40788131  1690
CZ-6A DEB               
1 54311U 22151BE  22331.74195150  .00003244  00000+0  10140-2 0  9998
2 54311  98.6978 336.5524 0127900 256.4515 102.2396 14.36865326  1680
CZ-6A DEB               
1 54312U 22151BF  22331.57296683  .00001276  00000+0  61937-3 0  9997
2 54312  98.9689 337.4179 0024179 284.9699  74.8800 14.20028630  1655
CZ-6A DEB               
1 54313U 22151BG  22332.42964539  .00005430  00000+0  16655-2 0  9997
2 54313  98.6949 337.2500 0125002 250.8662 107.8957 14.37661527  1787
CZ-6A DEB               
1 54314U 22151BH  22331.67553536  .00005573  00000+0  14545-2 0  9999
2 54314  98.6183 336.2110 0152956 249.8325 108.6356 14.43096596  1682
CZ-6A DEB               
1 54315U 22151BJ  22331.61732726  .00000077  00000+0  68520-4 0  9992
2 54315  98.8329 336.4623 0045456  49.9094 310.6048 14.09415534  1633
CZ-6A DEB               
1 54316U 22151BK  22332.25481865  .00000397  00000+0  24957-3 0  9999
2 54316  98.7971 336.8959 0042570  32.4540 327.9235 14.09547003  1736
CZ-6A DEB               
1 54317U 22151BL  22332.25040364  .00007422  00000+0  14145-2 0  9998
2 54317  98.7111 337.5928 0186285 234.4244 123.9466 14.53784934  1784
CZ-6A DEB               
1 54318U 22151BM  22331.78661614  .00000729  00000+0  45630-3 0  9990
2 54318  98.8160 336.4754 0055556  40.5065 320.0219 14.06952379  1658
CZ-6A DEB               
1 54319U 22151BN  22332.08703180  .00011323  00000+0  26174-2 0  9993
2 54319  98.6604 336.8721 0201611 261.4663  96.3635 14.43602561  1753
CZ-6A DEB               
1 54320U 22151BP  22332.25059986  .00000280  00000+0  23718-3 0  9994
2 54320  98.8421 336.6674 0136794  11.2846 349.1329 13.91178576  1713
CZ-6A DEB               
1 54321U 22151BQ  22331.81395926  .00000902  00000+0  29483-3 0  9999
2 54321  98.6881 336.5660 0127742 256.4845 102.2081 14.36597934  1694
CZ-6A DEB               
1 54322U 22151BR  22331.64816431  .00004770  00000+0  10712-2 0  9991
2 54322  98.7330 336.8787 0197860 258.1036  99.7909 14.45639657  1695
CZ-6A DEB               
1 54323U 22151BS  22331.71902661  .00000427  00000+0  27937-3 0  9994
2 54323  98.8082 336.3609 0056345  26.1104 334.2887 14.06627239  1669
CZ-6A DEB               
1 54324U 22151BT  22331.98516983  .00049788  00000+0  14227-2 0  9992
2 54324  98.6604 338.0618 0352649 225.0109 132.2030 14.91709016  1796
CZ-6A DEB               
1 54325U 22151BU  22332.08697845  .00000222  00000+0  14427-3 0  9995
2 54325  98.7846 336.7233 0034445  53.1037 307.3283 14.11843211  1710
CZ-6A DEB               
1 54326U 22151BV  22332.06366950  .00047014  00000+0  46291-2 0  9997
2 54326  99.0849 339.7934 0290379 249.8806 107.0935 14.65289946  1770
CZ-6A DEB               
1 54327U 22151BW  22331.56263648  .00000294  00000+0  19597-3 0  9991
2 54327  98.7886 336.1362 0051283  42.7752 317.7391 14.07923551  1626
CZ-6A DEB               
1 54328U 22151BX  22332.26583605  .00004287  00000+0  10540-2 0  9992
2 54328  98.7291 337.5001 0151836 238.5048 120.1232 14.46091602  1772
CZ-6A DEB               
1 54329U 22151BY  22332.23610588  .00002422  00000+0  54713-3 0  9991
2 54329  98.7362 337.5821 0169574 172.7146 187.6571 14.48739722  1776
CZ-6A DEB               
1 54330U 22151BZ  22331.95341771  .00001447  00000+0  72049-3 0  9994
2 54330  98.8027 336.8355 0063079 114.9784 245.7960 14.17491372  1691
CZ-6A DEB               
1 54331U 22151CA  22331.73318949  .00000503  00000+0  39584-3 0  9991
2 54331  98.7984 335.9703 0126717  45.4795 315.6636 13.92433868  1638
CZ-6A DEB               
1 54332U 22151CB  22331.75105651  .00001002  00000+0  51924-3 0  9995
2 54332  98.8005 336.6009 0043316 108.0729 252.5171 14.16627010  1675
CZ-6A DEB               
1 54333U 22151CC  22331.70676735  .00003351  00000+0  96183-3 0  9992
2 54333  98.7072 336.6517 0138552 251.6300 106.9778 14.40132896  1710
CZ-6A DEB               
1 54334U 22151CD  22331.64351286  .00003423  00000+0  99790-3 0  9994
2 54334  98.7086 336.5804 0136337 252.5223 106.1024 14.39552711  1702
CZ-6A DEB               
1 54335U 22151CE  22331.76273026  .00000367  00000+0  23316-3 0  9998
2 54335  98.7961 336.3998 0051607  61.2054 299.4285 14.09111436  1684
CZ-6A DEB               
1 54336U 22151CF  22332.43733493  .00000501  00000+0  32572-3 0  9997
2 54336  98.8079 337.0419 0061742  46.3950 314.2318 14.06020003  1782
CZ-6A DEB               
1 54337U 22151CG  22331.49556982  .00000152  00000+0  11424-3 0  9994
2 54337  98.8211 336.2341 0052395  40.0522 320.4492 14.07550909  1658
CZ-6A DEB               
1 54338U 22151CH  22331.75834275  .00000618  00000+0  37526-3 0  9996
2 54338  98.8306 336.5939 0043443  40.1890 320.2479 14.09512699  1696
CZ-6A DEB               
1 54339U 22151CJ  22331.82906557  .00000167  00000+0  11892-3 0  9995
2 54339  98.8076 336.5372 0044364  47.2456 313.2434 14.09528882  1707
CZ-6A DEB               
1 54340U 22151CK  22331.73110180  .00001950  00000+0  43603-3 0  9992
2 54340  98.7108 336.9710 0155987 223.1178 135.7713 14.50755566  1719
CZ-6A DEB               
1 54341U 22151CL  22332.09106332  .00000739  00000+0  37879-3 0  9999
2 54341  98.8055 336.9936 0051548 115.3225 245.3302 14.17796125  1727
CZ-6A DEB               
1 54342U 22151CM  22332.48764222 -.00000010  00000+0  19040-4 0  9995
2 54342  98.7995 337.0922 0053348  47.5865 312.9800 14.07818923  1761
CZ-6A DEB               
1 54343U 22151CN  22331.75656705  .00000058  00000+0  56950-4 0  9993
2 54343  98.8139 336.5027 0043103  44.4619 315.9998 14.09664434  1662
CZ-6A DEB               
1 54344U 22151CP  22331.78978908  .00000081  00000+0  73590-4 0  9994
2 54344  98.8224 336.5054 0057601  44.7696 315.8100 14.06654204  1669
CZ-6A DEB               
1 54345U 22151CQ  22332.26727788  .00002795  00000+0  12701-2 0  9996
2 54345  98.7055 336.7059 0078402 289.9809  69.2937 14.20975109  1753
CZ-6A DEB               
1 54346U 22151CR  22332.24468689  .00003629  00000+0  85364-3 0  9990
2 54346  98.6510 337.0963 0154274 233.2291 125.4657 14.47995096  1789
CZ-6A DEB               
1 54347U 22151CS  22332.05730872  .00000294  00000+0  13108-3 0  9998
2 54347  98.7131 336.7024 0107132 275.7948  83.1027 14.27142220  1732
CZ-6A DEB               
1 54348U 22151CT  22331.52647392  .00000550  00000+0  21323-3 0  9997
2 54348  98.6945 336.1661 0107370 266.6434  92.2462 14.30885685  1668
